     2.10           N: GPS NAV DATA                         RINEX VERSION / TYPE
teqc  2013Mar15     gpsops              20140517 00:23:20UTCPGM / RUN BY / DATE
Linux 2.4.21-27.ELsmp|Opteron|gcc -static|Linux x86_64|=+   COMMENT
GLPS                                    MARKER NAME         COMMENT
42005M002                               MARKER NUMBER       COMMENT
-33801.4662 -6377516.5323 -82154.3508                       COMMENT
                                                            COMMENT
This data is provided as a public service by NASA/JPL.      COMMENT
No warranty is expressed or implied regarding suitability   COMMENT
for use.  For further information, contact:                 COMMENT
Dave Stowers, NASA/JPL m/s 238-600                          COMMENT
4800 Oak Grove Drive, Pasadena CA 91109 USA                 COMMENT
                                                            END OF HEADER
26 14  5 16  8  0  0.0 7.722759619355D-05-1.182343112305D-11 0.000000000000D+00
    1.700000000000D+01 1.380625000000D+02 4.110528362863D-09-5.083306136447D-01
    7.396563887596D-06 2.138019807171D-02 9.873881936073D-06 5.153701158524D+03
    4.608000000000D+05-1.732259988785D-07 7.402817464262D-01 2.365559339523D-07
    9.753722838507D-01 2.001875000000D+02 1.282569605749D+00-8.227128407207D-09
    4.393040130612D-11 0.000000000000D+00 1.792000000000D+03 0.000000000000D+00
    2.000000000000D+00 0.000000000000D+00-6.053596735001D-09 1.700000000000D+01
    4.536000000000D+05 4.000000000000D+00
29 14  5 16  8  0  0.0 5.328678525984D-04 2.614797267597D-12 0.000000000000D+00
    6.300000000000D+01-3.750000000000D+01 4.008024093148D-09-2.791698244752D+00
   -1.862645149231D-06 1.599247218110D-03 1.206994056702D-05 5.153713552475D+03
    4.608000000000D+05-5.587935447693D-09-2.447209746852D+00 6.891787052155D-08
    9.694331831604D-01 1.470625000000D+02-8.871838720722D-01-7.643889827265D-09
    6.918145311378D-10 0.000000000000D+00 1.792000000000D+03 0.000000000000D+00
    2.000000000000D+00 0.000000000000D+00-9.778887033463D-09 6.300000000000D+01
    4.544700000000D+05 4.000000000000D+00
22 14  5 16  8  0  0.0 2.345894463360D-04 2.842170943040D-12 0.000000000000D+00
    8.100000000000D+01-2.850000000000D+01 5.637020518817D-09 1.759275049462D+00
   -1.538544893265D-06 7.200340507552D-03 8.963048458099D-06 5.153724565506D+03
    4.608000000000D+05-1.527369022369D-07-4.112541947994D-01-1.639127731323D-07
    9.238101035303D-01 1.903437500000D+02-2.058241524650D+00-8.467495562321D-09
   -6.682421206809D-10 0.000000000000D+00 1.792000000000D+03 0.000000000000D+00
    2.800000000000D+00 0.000000000000D+00-1.722946763039D-08 8.100000000000D+01
    4.595400000000D+05 4.000000000000D+00
 2 14  5 16 10  0  0.0 4.956219345331D-04 2.160049916711D-12 0.000000000000D+00
    4.500000000000D+01 2.321875000000D+01 5.659878613805D-09 2.553309292266D-01
    1.216307282448D-06 1.353050512262D-02 5.144625902176D-06 5.153593235016D+03
    4.680000000000D+05-1.117587089539D-08-1.476142298406D+00 2.384185791016D-07
    9.389243908839D-01 2.727187500000D+02-2.427218446111D+00-8.716077345321D-09
    3.332281660049D-10 0.000000000000D+00 1.792000000000D+03 0.000000000000D+00
    2.000000000000D+00 0.000000000000D+00-2.048909664154D-08 4.500000000000D+01
    4.608000000000D+05 4.000000000000D+00
12 14  5 16 10  0  0.0 2.052700147033D-04 2.501110429876D-12 0.000000000000D+00
    7.500000000000D+01-1.467500000000D+02 3.725869483134D-09-1.432369464898D+00
   -7.584691047668D-06 5.128538701683D-03 6.636604666710D-06 5.153630065918D+03
    4.680000000000D+05 3.539025783539D-08 2.776854850328D+00-9.685754776001D-08
    9.876900482264D-01 2.655312500000D+02 4.294392349764D-01-7.804610807653D-09
   -3.350139546759D-10 0.000000000000D+00 1.792000000000D+03 0.000000000000D+00
    2.000000000000D+00 0.000000000000D+00-1.210719347000D-08 7.500000000000D+01
    4.608000000000D+05 4.000000000000D+00
15 14  5 16 10  0  0.0-1.797820441425D-04-2.160049916711D-12 0.000000000000D+00
    6.200000000000D+01 1.179062500000D+02 4.916276211209D-09 1.085385230217D+00
    6.392598152161D-06 6.266315816902D-03 1.027062535286D-05 5.153696733475D+03
    4.680000000000D+05 4.284083843231D-08 6.055394075583D-01 6.519258022308D-08
    9.372123612624D-01 1.664687500000D+02 2.729491281468D-01-8.210341993700D-09
   -1.867934949846D-10 0.000000000000D+00 1.792000000000D+03 0.000000000000D+00
    2.000000000000D+00 0.000000000000D+00-1.024454832077D-08 6.200000000000D+01
    4.608000000000D+05 4.000000000000D+00
18 14  5 16 10  0  0.0 3.195605240762D-04 2.387423592154D-12 0.000000000000D+00
    6.500000000000D+01-2.703125000000D+01 5.469156383745D-09-2.915646408925D+00
   -1.505017280579D-06 1.525256049354D-02 9.005889296532D-06 5.153692289352D+03
    4.680000000000D+05 3.054738044739D-07-4.132216469917D-01-2.272427082062D-07
    9.260293853666D-01 1.834375000000D+02-2.039483365834D+00-8.193555580192D-09
   -6.228830884380D-10 0.000000000000D+00 1.792000000000D+03 0.000000000000D+00
    2.000000000000D+00 0.000000000000D+00-1.117587089539D-08 6.500000000000D+01
    4.608000000000D+05 4.000000000000D+00
22 14  5 16 10  0  0.0 2.346094697714D-04 2.842170943040D-12 0.000000000000D+00
    8.200000000000D+01-2.728125000000D+01 5.573089284396D-09 2.809490643568D+00
   -1.467764377594D-06 7.200460764579D-03 9.009614586830D-06 5.153723829269D+03
    4.680000000000D+05 5.029141902924D-08-4.113142256428D-01-1.322478055954D-07
    9.238060439327D-01 1.865937500000D+02-2.058299160696D+00-8.288916695223D-09
   -6.760995908332D-10 0.000000000000D+00 1.792000000000D+03 0.000000000000D+00
    2.800000000000D+00 0.000000000000D+00-1.722946763039D-08 8.200000000000D+01
    4.608000000000D+05 4.000000000000D+00
24 14  5 16 10  0  0.0-2.845050767064D-05-5.684341886081D-13 0.000000000000D+00
    6.000000000000D+01 5.662500000000D+01 4.926276627767D-09-1.760120888214D-01
    2.812594175339D-06 2.084762323648D-03 2.160668373108D-07 5.153732486725D+03
    4.680000000000D+05 6.332993507385D-08 1.679243372964D+00-2.793967723846D-08
    9.566007715190D-01 3.710312500000D+02 3.482490546338D-01-8.668932524407D-09
    2.714398779890D-11 0.000000000000D+00 1.792000000000D+03 0.000000000000D+00
    2.000000000000D+00 0.000000000000D+00 2.793967723846D-09 6.000000000000D+01
    4.608000000000D+05 4.000000000000D+00
25 14  5 16 10  0  0.0 2.388190478086D-05 5.684341886081D-13 0.000000000000D+00
    2.900000000000D+01-1.518750000000D+02 3.934449599904D-09-2.202427988652D+00
   -7.780268788338D-06 3.595181158744D-03 6.264075636864D-06 5.153617916107D+03
    4.680000000000D+05-6.332993507385D-08 2.734567569167D+00 1.862645149231D-09
    9.763734947437D-01 2.668125000000D+02 6.736195407406D-01-7.934616222900D-09
   -3.325138505366D-10 0.000000000000D+00 1.792000000000D+03 0.000000000000D+00
    2.000000000000D+00 0.000000000000D+00 5.122274160385D-09 2.900000000000D+01
    4.608000000000D+05 4.000000000000D+00
26 14  5 16 10  0  0.0 7.714284583926D-05-1.182343112305D-11 0.000000000000D+00
    1.800000000000D+01 1.199687500000D+02 4.164459180726D-09 5.417897357172D-01
    6.522983312607D-06 2.137846162077D-02 9.775161743164D-06 5.153697790146D+03
    4.680000000000D+05-2.831220626831D-07 7.402233072376D-01 3.539025783539D-08
    9.753722150935D-01 2.030625000000D+02 1.282612526303D+00-8.197127157534D-09
   -1.096474243982D-10 0.000000000000D+00 1.792000000000D+03 0.000000000000D+00
    2.000000000000D+00 0.000000000000D+00-6.053596735001D-09 1.800000000000D+01
    4.608000000000D+05 4.000000000000D+00
29 14  5 16 10  0  0.0 5.328869447112D-04 2.614797267597D-12 0.000000000000D+00
    6.400000000000D+01-3.196875000000D+01 3.977308528008D-09-1.741801186428D+00
   -1.577660441399D-06 1.600059564225D-03 1.261755824089D-05 5.153711982727D+03
    4.680000000000D+05-1.862645149231D-08-2.447264822792D+00 6.332993507385D-08
    9.694381190460D-01 1.411875000000D+02-8.869272352794D-01-7.654961717025D-09
    6.928860043404D-10 0.000000000000D+00 1.792000000000D+03 0.000000000000D+00
    2.000000000000D+00 0.000000000000D+00-9.778887033463D-09 6.400000000000D+01
    4.608000000000D+05 4.000000000000D+00
14 14  5 16 10  0  0.0 1.724073663354D-04-3.410605131648D-12 0.000000000000D+00
    3.300000000000D+01 1.433750000000D+02 4.075169747177D-09 1.694168507936D+00
    7.241964340210D-06 7.473257370293D-03 1.104921102524D-05 5.153667409897D+03
    4.680000000000D+05-1.527369022369D-07 7.171508684180D-01-1.508742570877D-07
    9.705645732817D-01 1.722500000000D+02-1.999800901015D+00-7.826040271705D-09
    6.071681481333D-12 0.000000000000D+00 1.792000000000D+03 0.000000000000D+00
    2.000000000000D+00 0.000000000000D+00-9.313225746155D-09 3.300000000000D+01
    4.621800000000D+05 4.000000000000D+00
21 14  5 16 10  0  0.0-3.613932058215D-04-2.160049916711D-12 0.000000000000D+00
    4.500000000000D+01 2.006250000000D+01 5.584518331890D-09-1.947467859419D+00
    1.041218638420D-06 2.148542995565D-02 4.196539521217D-06 5.153746879578D+03
    4.680000000000D+05 3.390014171600D-07-1.458724261789D+00-2.980232238770D-08
    9.318612322179D-01 2.726562500000D+02-2.026591385631D+00-8.267844388905D-09
    5.775240561951D-10 0.000000000000D+00 1.792000000000D+03 0.000000000000D+00
    2.000000000000D+00 0.000000000000D+00-1.117587089539D-08 4.500000000000D+01
    4.623000000000D+05 4.000000000000D+00
12 14  5 16 12  0  0.0 2.052877098322D-04 2.501110429876D-12 0.000000000000D+00
    1.000000000000D+02-1.316875000000D+02 3.894090775940D-09-3.824937256790D-01
   -6.975606083870D-06 5.128080374561D-03 6.470829248428D-06 5.153627006531D+03
    4.752000000000D+05 4.842877388000D-08 2.776798615757D+00 6.519258022308D-08
    9.876867771416D-01 2.673125000000D+02 4.297675313484D-01-7.944973797192D-09
   -4.050168705784D-10 0.000000000000D+00 1.792000000000D+03 0.000000000000D+00
    2.000000000000D+00 0.000000000000D+00-1.210719347000D-08 1.000000000000D+02
    4.680000000000D+05 4.000000000000D+00
